CSS (TIANHE)            
1 48274U 21035A   23296.17305648  .00021030  00000+0  23886-3 0  9997
2 48274  41.4710  96.6390 0002633 178.8662 181.2184 15.61825393141845
